{"type": "FeatureCollection", "features": [ {"type": "Feature", "properties": {"norad_id": 31024, "name": "FENGYUN 1C DEB", "group": "fengyun-1c-debris", "lat": -56.878368423972795, "lon": 77.25736347906492, "alt_km": 873.5678171786958, "timestamp": "2025-12-23T18:59:32.247277+00:00", "meta": {"OBJECT_NAME": "FENGYUN 1C DEB", "OBJECT_ID": "1999-025BDS", "EPOCH": "2025-12-20T05:22:46.706016", "MEAN_MOTION": 14.20867875, "ECCENTRICITY": 0.0075376, "INCLINATION": 99.0428, "RA_OF_ASC_NODE": 267.7364, "ARG_OF_PERICENTER": 103.4844, "MEAN_ANOMALY": 257.4745, "EPHEMERIS_TYPE": 0, "CLASSIFICATION_TYPE": "U", "NORAD_CAT_ID": 31024, "ELEMENT_SET_NO": 999, "REV_AT_EPOCH": 96810, "BSTAR": 0.00021416, "MEAN_MOTION_DOT": 4.31e-06, "MEAN_MOTION_DDOT": 0}, "tle": {"line1": "1 31024U 99025BDS 25354.22415169  .00000431  00000+0  21416-3 0  9998", "line2": "2 31024  99.0428 267.7364 0075376 103.4844 257.4745 14.20867875968107"}}, "geometry": {"type": "Point", "coordinates": [77.25736347906492, -56.878368423972795]}}, {"type": "Feature", "properties": {"norad_id": 31025, "name": "FENGYUN 1C DEB", "group": "fengyun-1c-debris", "lat": 60.536637036993945, "lon": -27.838289321317937, "alt_km": 795.5929359165657, "timestamp": "2025-12-23T18:59:32.247287+00:00", "meta": {"OBJECT_NAME": "FENGYUN 1C DEB", "OBJECT_ID": "1999-025BDT", "EPOCH": "2025-12-07T05:28:07.771008", "MEAN_MOTION": 14.20521805, "ECCENTRICITY": 0.01734931, "INCLINATION": 98.58, "RA_OF_ASC_NODE": 331.5793, "ARG_OF_PERICENTER": 28.741, "MEAN_ANOMALY": 332.3194, "EPHEMERIS_TYPE": 0, "CLASSIFICATION_TYPE": "U", "NORAD_CAT_ID": 31025, "ELEMENT_SET_NO": 999, "REV_AT_EPOCH": 64287, "BSTAR": 0.0012507545, "MEAN_MOTION_DOT": 3.084e-05, "MEAN_MOTION_DDOT": 0}, "tle": {"line1": "1 31025U 99025BDT 25341.22786772  .00003084  00000+0  12508-2 0  9994", "line2": "2 31025  98.5800 331.5793 0173493  28.7410 332.3194 14.20521805642873"}}, "geometry": {"type": "Point", "coordinates": [-27.838289321317937, 60.536637036993945]}}, {"type": "Feature", "properties": {"norad_id": 31026, "name": "FENGYUN 1C DEB", "group": "fengyun-1c-debris", "lat": 25.220658038119684, "lon": -71.5543436203928, "alt_km": 1009.4266161351379, "timestamp": "2025-12-23T18:59:32.247296+00:00", "meta": {"OBJECT_NAME": "FENGYUN 1C DEB", "OBJECT_ID": "1999-025BDU", "EPOCH": "2025-12-16T14:07:08.116896", "MEAN_MOTION": 13.83400412, "ECCENTRICITY": 0.01344959, "INCLINATION": 98.7801, "RA_OF_ASC_NODE": 285.8947, "ARG_OF_PERICENTER": 172.0946, "MEAN_ANOMALY": 1.2766, "EPHEMERIS_TYPE": 0, "CLASSIFICATION_TYPE": "U", "NORAD_CAT_ID": 31026, "ELEMENT_SET_NO": 999, "REV_AT_EPOCH": 68079, "BSTAR": 0.00014906948, "MEAN_MOTION_DOT": 1.36e-06, "MEAN_MOTION_DDOT": 0}, "tle": {"line1": "1 31026U 99025BDU 25350.58828839  .00000136  00000+0  14907-3 0  9996", "line2": "2 31026  98.7801 285.8947 0134495 172.0946   1.2766 13.83400412680793"}}, "geometry": {"type": "Point", "coordinates": [-71.5543436203928, 25.220658038119684]}}, {"type": "Feature", "properties": {"norad_id": 31028, "name": "FENGYUN 1C DEB", "group": "fengyun-1c-debris", "lat": -77.27440164701605, "lon": 66.20272028132408, "alt_km": 819.1865733542136, "timestamp": "2025-12-23T18:59:32.247307+00:00", "meta": {"OBJECT_NAME": "FENGYUN 1C DEB", "OBJECT_ID": "1999-025BDW", "EPOCH": "2025-12-16T00:45:35.214048", "MEAN_MOTION": 13.89074855, "ECCENTRICITY": 0.01643907, "INCLINATION": 98.7052, "RA_OF_ASC_NODE": 281.6698, "ARG_OF_PERICENTER": 285.3135, "MEAN_ANOMALY": 72.9908, "EPHEMERIS_TYPE": 0, "CLASSIFICATION_TYPE": "U", "NORAD_CAT_ID": 31028, "ELEMENT_SET_NO": 999, "REV_AT_EPOCH": 62049, "BSTAR": 0.0002880402, "MEAN_MOTION_DOT": 3.48e-06, "MEAN_MOTION_DDOT": 0}, "tle": {"line1": "1 31028U 99025BDW 25350.03165757  .00000348  00000+0  28804-3 0  9997", "line2": "2 31028  98.7052 281.6698 0164390 285.3135  72.9908 13.89074855620493"}}, "geometry": {"type": "Point", "coordinates": [66.20272028132408, -77.27440164701605]}}, {"type": "Feature", "properties": {"norad_id": 31029, "name": "FENGYUN 1C DEB", "group": "fengyun-1c-debris", "lat": -0.673544780816528, "lon": 74.86052876486275, "alt_km": 828.5396580600764, "timestamp": "2025-12-23T18:59:32.247316+00:00", "meta": {"OBJECT_NAME": "FENGYUN 1C DEB", "OBJECT_ID": "1999-025BDX", "EPOCH": "2025-12-21T22:54:47.355264", "MEAN_MOTION": 14.34340138, "ECCENTRICITY": 0.00900149, "INCLINATION": 98.8588, "RA_OF_ASC_NODE": 253.0837, "ARG_OF_PERICENTER": 47.0773, "MEAN_ANOMALY": 14.5142, "EPHEMERIS_TYPE": 0, "CLASSIFICATION_TYPE": "U", "NORAD_CAT_ID": 31029, "ELEMENT_SET_NO": 999, "REV_AT_EPOCH": 97928, "BSTAR": 0.00032935697, "MEAN_MOTION_DOT": 9.22e-06, "MEAN_MOTION_DDOT": 0}, "tle": {"line1": "1 31029U 99025BDX 25355.95471476  .00000922  00000+0  32936-3 0  9991", "line2": "2 31029  98.8588 253.0837 0090014  47.0773  14.5142 14.34340138979286"}}, "geometry": {"type": "Point", "coordinates": [74.86052876486275, -0.673544780816528]}}, {"type": "Feature", "properties": {"norad_id": 31030, "name": "FENGYUN 1C DEB", "group": "fengyun-1c-debris", "lat": -60.67742891123666, "lon": 75.61888505106515, "alt_km": 828.0116201016208, "timestamp": "2025-12-23T18:59:32.247325+00:00", "meta": {"OBJECT_NAME": "FENGYUN 1C DEB", "OBJECT_ID": "1999-025BDY", "EPOCH": "2025-12-23T02:42:45.900864", "MEAN_MOTION": 14.23711655, "ECCENTRICITY": 0.00272265, "INCLINATION": 98.7654, "RA_OF_ASC_NODE": 58.9998, "ARG_OF_PERICENTER": 54.6084, "MEAN_ANOMALY": 9.1816, "EPHEMERIS_TYPE": 0, "CLASSIFICATION_TYPE": "U", "NORAD_CAT_ID": 31030, "ELEMENT_SET_NO": 999, "REV_AT_EPOCH": 96852, "BSTAR": 0.00089691608, "MEAN_MOTION_DOT": 2.012e-05, "MEAN_MOTION_DDOT": 0}, "tle": {"line1": "1 31030U 99025BDY 25357.11303126  .00002012  00000+0  89692-3 0  9992", "line2": "2 31030  98.7654  58.9998 0027226  54.6084   9.1816 14.23711655968522"}}, "geometry": {"type": "Point", "coordinates": [75.61888505106515, -60.67742891123666]}}, {"type": "Feature", "properties": {"norad_id": 31031, "name": "FENGYUN 1C DEB", "group": "fengyun-1c-debris", "lat": -14.280370036690734, "lon": 92.85629344923568, "alt_km": 811.0797878659077, "timestamp": "2025-12-23T18:59:32.247334+00:00", "meta": {"OBJECT_NAME": "FENGYUN 1C DEB", "OBJECT_ID": "1999-025BDZ", "EPOCH": "2025-12-21T05:57:49.745952", "MEAN_MOTION": 14.20999102, "ECCENTRICITY": 0.00279946, "INCLINATION": 99.0717, "RA_OF_ASC_NODE": 272.5772, "ARG_OF_PERICENTER": 161.5115, "MEAN_ANOMALY": 351.6583, "EPHEMERIS_TYPE": 0, "CLASSIFICATION_TYPE": "U", "NORAD_CAT_ID": 31031, "ELEMENT_SET_NO": 999, "REV_AT_EPOCH": 96975, "BSTAR": 0.00037006692, "MEAN_MOTION_DOT": 7.59e-06, "MEAN_MOTION_DDOT": 0}, "tle": {"line1": "1 31031U 99025BDZ 25355.24849243  .00000759  00000+0  37007-3 0  9999", "line2": "2 31031  99.0717 272.5772 0027994 161.5115 351.6583 14.20999102969750"}}, "geometry": {"type": "Point", "coordinates": [92.85629344923568, -14.280370036690734]}}, {"type": "Feature", "properties": {"norad_id": 31032, "name": "FENGYUN 1C DEB", "group": "fengyun-1c-debris", "lat": -8.601480759677166, "lon": -174.47532564367128, "alt_km": 796.3978902436329, "timestamp": "2025-12-23T18:59:32.247344+00:00", "meta": {"OBJECT_NAME": "FENGYUN 1C DEB", "OBJECT_ID": "1999-025BEA", "EPOCH": "2025-12-22T08:27:25.586208", "MEAN_MOTION": 14.02237053, "ECCENTRICITY": 0.0139242, "INCLINATION": 99.3987, "RA_OF_ASC_NODE": 5.4768, "ARG_OF_PERICENTER": 169.8785, "MEAN_ANOMALY": 318.062, "EPHEMERIS_TYPE": 0, "CLASSIFICATION_TYPE": "U", "NORAD_CAT_ID": 31032, "ELEMENT_SET_NO": 999, "REV_AT_EPOCH": 95116, "BSTAR": 0.0013706393, "MEAN_MOTION_DOT": 2.239e-05, "MEAN_MOTION_DDOT": 0}, "tle": {"line1": "1 31032U 99025BEA 25356.35237947  .00002239  00000+0  13706-2 0  9999", "line2": "2 31032  99.3987   5.4768 0139242 169.8785 318.0620 14.02237053951160"}}, "geometry": {"type": "Point", "coordinates": [-174.47532564367128, -8.601480759677166]}}, {"type": "Feature", "properties": {"norad_id": 31033, "name": "FENGYUN 1C DEB", "group": "fengyun-1c-debris", "lat": 14.57344191728136, "lon": 157.9517178229361, "alt_km": 793.5106465245262, "timestamp": "2025-12-23T18:59:32.247353+00:00", "meta": {"OBJECT_NAME": "FENGYUN 1C DEB", "OBJECT_ID": "1999-025BEB", "EPOCH": "2025-12-23T04:52:45.495840", "MEAN_MOTION": 14.27463538, "ECCENTRICITY": 0.01541916, "INCLINATION": 98.4395, "RA_OF_ASC_NODE": 335.1716, "ARG_OF_PERICENTER": 79.9172, "MEAN_ANOMALY": 303.3336, "EPHEMERIS_TYPE": 0, "CLASSIFICATION_TYPE": "U", "NORAD_CAT_ID": 31033, "ELEMENT_SET_NO": 999, "REV_AT_EPOCH": 97495, "BSTAR": 0.00019267826, "MEAN_MOTION_DOT": 4.94e-06, "MEAN_MOTION_DDOT": 0}, "tle": {"line1": "1 31033U 99025BEB 25357.20330435  .00000494  00000+0  19268-3 0  9992", "line2": "2 31033  98.4395 335.1716 0154191  79.9172 303.3336 14.27463538974950"}}, "geometry": {"type": "Point", "coordinates": [157.9517178229361, 14.57344191728136]}}, {"type": "Feature", "properties": {"norad_id": 31036, "name": "FENGYUN 1C DEB", "group": "fengyun-1c-debris", "lat": 67.09300291896096, "lon": -53.316308266456815, "alt_km": 770.0363394105425, "timestamp": "2025-12-23T18:59:32.247362+00:00", "meta": {"OBJECT_NAME": "FENGYUN 1C DEB", "OBJECT_ID": "1999-025BEE", "EPOCH": "2025-12-23T04:06:31.157280", "MEAN_MOTION": 14.49094429, "ECCENTRICITY": 0.01377171, "INCLINATION": 98.9152, "RA_OF_ASC_NODE": 104.2221, "ARG_OF_PERICENTER": 233.0577, "MEAN_ANOMALY": 246.1531, "EPHEMERIS_TYPE": 0, "CLASSIFICATION_TYPE": "U", "NORAD_CAT_ID": 31036, "ELEMENT_SET_NO": 999, "REV_AT_EPOCH": 57458, "BSTAR": 0.00026197919, "MEAN_MOTION_DOT": 1.065e-05, "MEAN_MOTION_DDOT": 0}, "tle": {"line1": "1 31036U 99025BEE 25357.17119395  .00001065  00000+0  26198-3 0  9996", "line2": "2 31036  98.9152 104.2221 0137717 233.0577 246.1531 14.49094429574581"}}, "geometry": {"type": "Point", "coordinates": [-53.316308266456815, 67.09300291896096]}}]}